SCD 1                   
1 22490U 93009B   25204.04555453  .00000382  00000+0  53627-4 0  9991
2 22490  24.9703  79.4669 0041907 254.8498 250.3499 14.45876105713426
TECHSAT 1B (GO-32)      
1 25397U 98043D   25204.52686510  .00000076  00000+0  53021-4 0  9993
2 25397  98.9732 184.5696 0002385  85.3311 274.8140 14.24323929404546
SCD 2                   
1 25504U 98060A   25204.58100569  .00000403  00000+0  61809-4 0  9990
2 25504  24.9955 298.3647 0016554 251.0201 131.7748 14.45314943412739
DLR-TUBSAT              
1 25757U 99029B   25204.53401840  .00000104  00000+0  37470-4 0  9992
2 25757  98.6382 184.7754 0013020 269.8196  90.1507 14.52283776385549
TERRA                   
1 25994U 99068A   25204.61827635  .00000451  00000+0  10169-3 0  9991
2 25994  97.9960 261.3395 0002585 154.1664 325.9594 14.60740058361638
MAROC-TUBSAT            
1 27004U 01056D   25204.42375519 -.00000020  00000+0  30223-4 0  9990
2 27004  99.7820  10.4430 0019034 264.8819 149.3555 13.70244419181161
AQUA                    
1 27424U 02022A   25204.64386640  .00000874  00000+0  18674-3 0  9992
2 27424  98.3798 163.4587 0000810  64.7936  49.0316 14.61360095235270
IRS-P6 (RESOURCESAT-1)  
1 28051U 03046A   25204.58516856  .00000145  00000+0  62965-4 0  9997
2 28051  98.2386 251.3937 0062996 247.3821 231.4607 14.35992550133365
SHIYAN-1 (SY-1)         
1 28220U 04012A   25204.60566232  .00011241  00000+0  46920-3 0  9996
2 28220  97.9147 258.1117 0008610  94.2487 265.9733 15.23810909160894
AURA                    
1 28376U 04026A   25204.58184948  .00000844  00000+0  18377-3 0  9992
2 28376  98.2957 154.3970 0001142  80.5528 279.5801 14.60500471118238
IRS-P5 (CARTOSAT-1)     
1 28649U 05017A   25204.58573350  .00001526  00000+0  16466-3 0  9990
2 28649  97.5653 237.2000 0002597  85.1524 274.9991 14.89769254 94872
SINAH 1                 
1 28893U 05043D   25204.57440405  .00000379  00000+0  82044-4 0  9994
2 28893  98.2424 332.9377 0013689 221.8317 138.1840 14.63748861 52444
EROS B                  
1 29079U 06014A   25204.56424311  .00045575  00000+0  10591-2 0  9990
2 29079  97.3488 317.9349 0004467 244.7735 115.3050 15.42196920 68768
RESURS-DK 1             
1 29228U 06021A   25204.15846950  .00002478  00000+0  15380-3 0  9993
2 29228  69.9345 109.9885 0002133 150.6502 209.4783 15.11121541 52832
ARIRANG-2 (KOMPSAT-2)   
1 29268U 06031A   25204.59489725  .00000339  00000+0  72557-4 0  9993
2 29268  97.8358  39.9432 0015451  40.5368  52.8472 14.64329527 13387
LAPAN-TUBSAT            
1 29709U 07001A   25204.58810797  .00000466  00000+0  60746-4 0  9995
2 29709  98.1119 191.9272 0012507 169.0075 191.1415 14.85383007  2364
HAIYANG-1B              
1 31113U 07010A   25204.57712579  .00000107  00000+0  56455-4 0  9999
2 31113  98.3160 194.8189 0014867  95.0443 265.2438 14.30903730953635
COSMO-SKYMED 1          
1 31598U 07023A   25204.63394834  .00001272  00000+0  12294-3 0  9993
2 31598  97.8881  29.2151 0001272  86.0891 274.0474 14.94606533980661
TERRASAR-X              
1 31698U 07026A   25203.71863467  .00001202  00000+0  60430-4 0  9997
2 31698  97.4468 211.1418 0001620  90.9962 269.1458 15.19154014  3200
WORLDVIEW-1 (WV-1)      
1 32060U 07041A   25204.29457459  .00007598  00000+0  31357-3 0  9991
2 32060  97.3814 323.8165 0000151 183.0646 177.0591 15.24319301992827
YAOGAN-3                
1 32289U 07055A   25204.58760225  .00002018  00000+0  22068-3 0  9990
2 32289  97.8510 232.4362 0001886  90.1848 269.9585 14.88949278956937
COSMO-SKYMED 2          
1 32376U 07059A   25204.58731229  .00000482  00000+0  67129-4 0  9994
2 32376  97.8885  27.9507 0001373  92.8224 267.3146 14.82165913953320
RADARSAT-2              
1 32382U 07061A   25204.59456255  .00000085  00000+0  50045-4 0  9996
2 32382  98.5788 211.2076 0001252  91.0474 269.0852 14.29981931918994
CARTOSAT-2A             
1 32783U 08021A   25204.57602825  .00000789  00000+0  11420-3 0  9996
2 32783  97.8128 258.6860 0012633  99.3233 260.9408 14.78743704930230
HUANJING 1A (HJ-1A)     
1 33320U 08041A   25204.60648021  .00001255  00000+0  16092-3 0  9997
2 33320  97.6424 198.9695 0020540 133.9778 226.3135 14.82799409909699
HUANJING 1B (HJ-1B)     
1 33321U 08041B   25204.58250235  .00000960  00000+0  12500-3 0  9993
2 33321  97.6306 202.9805 0037034 179.2277 180.9001 14.82325240909719
GEOEYE 1                
1 33331U 08042A   25204.56874275  .00000521  00000+0  10685-3 0  9994
2 33331  98.1204 277.6584 0004652  28.3572 331.7883 14.64717352902040
THEOS                   
1 33396U 08049A   25204.56645988  .00000056  00000+0  46184-4 0  9996
2 33396  98.6073 266.6802 0001127  98.4579 261.6725 14.20056662871324
COSMO-SKYMED 3          
1 33412U 08054A   25204.60152048  .00004609  00000+0  33979-3 0  9991
2 33412  97.8651  52.6369 0015925 299.2826  60.6807 15.03727826907501
YAOGAN-4                
1 33446U 08061A   25204.38005890  .00001125  00000+0  14772-3 0  9993
2 33446  97.9042 136.0967 0015944  64.0583 296.2271 14.82127433896944
GOSAT (IBUKI)           
1 33492U 09002A   25204.56984527  .00000320  00000+0  64873-4 0  9997
2 33492  98.0667 315.2487 0001436  68.2944 291.8413 14.67552655883267
DEIMOS-1                
1 35681U 09041A   25204.57324418  .00000630  00000+0  10149-3 0  9990
2 35681  97.7041  11.9220 0002078 128.7029 231.4367 14.74647853858448
DUBAISAT-1              
1 35682U 09041B   25204.60715727  .00000980  00000+0  15631-3 0  9991
2 35682  97.9604 337.6154 0011674  51.0251 309.1996 14.74054643856670
OCEANSAT-2              
1 35931U 09051A   25204.57138615 -.00000196  00000+0 -10863-3 0  9993
2 35931  98.2239 219.5441 0016902  84.0932 276.2161 13.99600010833363
WORLDVIEW-2 (WV-2)      
1 35946U 09055A   25204.53194790  .00000110  00000+0  51447-4 0  9993
2 35946  98.4803 277.6134 0005420 117.1327 243.0413 14.37282748828421
SMOS                    
1 36036U 09059A   25204.54202016  .00000260  00000+0  96794-4 0  9990
2 36036  98.4429  31.6520 0001463  93.6818 266.4537 14.39763740826162
YAOGAN-7                
1 36110U 09069A   25204.62170995  .00000536  00000+0  82336-4 0  9996
2 36110  98.0500  86.7889 0025371  21.1128 339.1124 14.77465566841102
TANDEM-X                
1 36605U 10030A   25203.71863554  .00001237  00000+0  62104-4 0  9994
2 36605  97.4469 211.1433 0001730  88.5173 271.6260 15.19153476836620
CARTOSAT-2B             
1 36795U 10035A   25204.61176796  .00000733  00000+0  10652-3 0  9994
2 36795  97.8065 258.0574 0012064 170.6233 189.5206 14.78757819811292
YAOGAN-10               
1 36834U 10038A   25204.62019132  .00000666  00000+0  85906-4 0  9992
2 36834  97.9249 225.4085 0001654  92.6145  22.1321 14.84262530808456
COSMO-SKYMED 4          
1 37216U 10060A   25204.59998254  .00000471  00000+0  65739-4 0  9995
2 37216  97.8884  27.9656 0001428  89.9541 270.1835 14.82165927795890
RESOURCESAT-2           
1 37387U 11015A   25204.61140385  .00000087  00000+0  59942-4 0  9994
2 37387  98.8066 268.6455 0007025  86.6985 273.4996 14.21582204739490
HAIYANG-2A              
1 37781U 11043A   25204.62465062  .00000006  00000+0  49072-4 0  9990
2 37781  99.3335 207.7304 0001806  91.2761 268.8598 13.78820892701400
RASAT                   
1 37791U 11044D   25204.63395205  .00000602  00000+0  11420-3 0  9991
2 37791  98.0688 296.0087 0021449 150.5415 313.1863 14.67632685744986
SRMSAT                  
1 37841U 11058D   25204.49296741  .00000394  00000+0  70341-4 0  9997
2 37841  19.9710 248.8142 0011660 187.0823 202.8436 14.11446314711322
PLEIADES 1A             
1 38012U 11076F   25204.60694153  .00000334  00000+0  81752-4 0  9992
2 38012  98.1970 279.4468 0001675  90.8351  45.6037 14.58537665724092
ZIYUAN 1-02C (ZY 1-02C) 
1 38038U 11079A   25204.60301605  .00000442  00000+0  16113-3 0  9998
2 38038  98.4515 273.1097 0006026 199.9798 296.4307 14.37806252711986
ZIYUAN 3-1 (ZY 3-1)     
1 38046U 12001A   25204.59193981  .00022904  00000+0  35093-3 0  9992
2 38046  97.1968 269.3788 0005131 120.9159 239.2601 15.54328100752818
ARIRANG-3 (KOMPSAT-3)   
1 38338U 12025B   25204.62028215  .00000491  00000+0  10885-3 0  9992
2 38338  98.3083 158.3683 0007007  56.3499 303.8369 14.61460796703345
EXACTVIEW-1 (ADS-1B)    
1 38709U 12039C   25204.26408989  .00000098  00000+0  61641-4 0  9999
2 38709  98.9556 309.7573 0011561  44.0758 316.1340 14.24829934675863
SPOT 6                  
1 38755U 12047A   25204.59695761  .00000324  00000+0  79401-4 0  9996
2 38755  98.1756 271.8422 0001691  92.6367 267.5026 14.58586943685158
PLEIADES 1B             
1 39019U 12068A   25204.54638829  .00000319  00000+0  78436-4 0  9991
2 39019  98.1942 279.3185 0001458  91.0373 269.0993 14.58573328672945
GOKTURK 2               
1 39030U 12073A   25204.54301251  .00000510  00000+0  82750-4 0  9993
2 39030  97.7071  53.0809 0001289  63.3414 296.7928 14.75043308676056
LANDSAT 8               
1 39084U 13008A   25204.57885478  .00000362  00000+0  90532-4 0  9994
2 39084  98.2241 274.6071 0001293  88.7681 271.3665 14.57107931650045
SARAL                   
1 39086U 13009A   25204.60881476  .00000095  00000+0  50934-4 0  9990
2 39086  98.5540  30.3718 0002257 146.8612 213.2713 14.32693341648558
GAOFEN-1                
1 39150U 13018A   25204.59240631  .00000623  00000+0  96613-4 0  9993
2 39150  97.9485 277.6284 0016205 242.1824 117.7744 14.76513068659759
VNREDSAT 1              
1 39160U 13021B   25204.62090850  .00000618  00000+0  12395-3 0  9996
2 39160  97.9471 264.7849 0001614  92.8354 267.3034 14.64977986652189
ARIRANG-5 (KOMPSAT-5)   
1 39227U 13042A   25204.54810771  .00001484  00000+0  11028-3 0  9990
2 39227  97.6193  30.8319 0002701 153.6590 206.4774 15.04529946654441
SKYSAT-A                
1 39418U 13066C   25204.61300036  .00003193  00000+0  19783-3 0  9999
2 39418  97.4324 259.0830 0022878  12.9807 347.2006 15.10255312638843
DUBAISAT-2              
1 39419U 13066D   25204.59371635  .00004610  00000+0  31425-3 0  9992
2 39419  97.4343 199.6351 0013783  82.6184 277.6610 15.06645859636859
